CCSDS_OMM_VERS = 2.0
CREATION_DATE  = 
ORIGINATOR     = 

OBJECT_NAME    = CZ-2C R/B
OBJECT_ID      = 2022-132E
CENTER_NAME    = EARTH
REF_FRAME      = TEME
TIME_SYSTEM    = UTC
MEAN_ELEMENT_THEORY = SGP/SGP4

EPOCH          = 2026-02-06T23:24:34.076160
MEAN_MOTION    = 15.59201995
ECCENTRICITY   = .0017938
INCLINATION    = 97.2961
RA_OF_ASC_NODE = 40.4283
ARG_OF_PERICENTER = 196.3338
MEAN_ANOMALY   = 163.7343

EPHEMERIS_TYPE = 0
CLASSIFICATION_TYPE = U
NORAD_CAT_ID   = 54039
ELEMENT_SET_NO = 999
REV_AT_EPOCH   = 18558
BSTAR          = .60049E-3
MEAN_MOTION_DOT = .475E-3
MEAN_MOTION_DDOT = 0

CCSDS_OMM_VERS = 2.0
CREATION_DATE  = 
ORIGINATOR     = 

OBJECT_NAME    = GSLV R/B
OBJECT_ID      = 2022-138AN
CENTER_NAME    = EARTH
REF_FRAME      = TEME
TIME_SYSTEM    = UTC
MEAN_ELEMENT_THEORY = SGP/SGP4

EPOCH          = 2026-02-07T00:45:29.096928
MEAN_MOTION    = 14.96538472
ECCENTRICITY   = .0019386
INCLINATION    = 87.3860
RA_OF_ASC_NODE = 176.6210
ARG_OF_PERICENTER = 262.3587
MEAN_ANOMALY   = 97.5442

EPHEMERIS_TYPE = 0
CLASSIFICATION_TYPE = U
NORAD_CAT_ID   = 54149
ELEMENT_SET_NO = 999
REV_AT_EPOCH   = 17934
BSTAR          = .38755E-3
MEAN_MOTION_DOT = .4448E-4
MEAN_MOTION_DDOT = 0

CCSDS_OMM_VERS = 2.0
CREATION_DATE  = 
ORIGINATOR     = 

OBJECT_NAME    = XRISM
OBJECT_ID      = 2023-137A
CENTER_NAME    = EARTH
REF_FRAME      = TEME
TIME_SYSTEM    = UTC
MEAN_ELEMENT_THEORY = SGP/SGP4

EPOCH          = 2026-02-06T08:02:10.646016
MEAN_MOTION    = 15.11106214
ECCENTRICITY   = .00079965
INCLINATION    = 31.0019
RA_OF_ASC_NODE = 126.4010
ARG_OF_PERICENTER = 85.4035
MEAN_ANOMALY   = 274.7516

EPHEMERIS_TYPE = 0
CLASSIFICATION_TYPE = U
NORAD_CAT_ID   = 57800
ELEMENT_SET_NO = 999
REV_AT_EPOCH   = 13304
BSTAR          = .4917917E-3
MEAN_MOTION_DOT = .8547E-4
MEAN_MOTION_DDOT = 0

CCSDS_OMM_VERS = 2.0
CREATION_DATE  = 
ORIGINATOR     = 

OBJECT_NAME    = ACS3
OBJECT_ID      = 2024-077B
CENTER_NAME    = EARTH
REF_FRAME      = TEME
TIME_SYSTEM    = UTC
MEAN_ELEMENT_THEORY = SGP/SGP4

EPOCH          = 2026-02-06T19:25:06.726432
MEAN_MOTION    = 13.88347007
ECCENTRICITY   = .0045469
INCLINATION    = 97.2238
RA_OF_ASC_NODE = 345.8632
ARG_OF_PERICENTER = 174.1822
MEAN_ANOMALY   = 185.9879

EPHEMERIS_TYPE = 0
CLASSIFICATION_TYPE = U
NORAD_CAT_ID   = 59588
ELEMENT_SET_NO = 999
REV_AT_EPOCH   = 8991
BSTAR          = .22704E-1
MEAN_MOTION_DOT = .27485E-3
MEAN_MOTION_DDOT = 0

CCSDS_OMM_VERS = 2.0
CREATION_DATE  = 
ORIGINATOR     = 

OBJECT_NAME    = SZ-21 MODULE
OBJECT_ID      = 2025-246C
CENTER_NAME    = EARTH
REF_FRAME      = TEME
TIME_SYSTEM    = UTC
MEAN_ELEMENT_THEORY = SGP/SGP4

EPOCH          = 2026-02-07T01:01:16.333824
MEAN_MOTION    = 15.66234853
ECCENTRICITY   = .0002983
INCLINATION    = 41.4765
RA_OF_ASC_NODE = 31.6776
ARG_OF_PERICENTER = 280.6957
MEAN_ANOMALY   = 79.3548

EPHEMERIS_TYPE = 0
CLASSIFICATION_TYPE = U
NORAD_CAT_ID   = 66515
ELEMENT_SET_NO = 999
REV_AT_EPOCH   = 1326
BSTAR          = .37769E-3
MEAN_MOTION_DOT = .3998E-3
MEAN_MOTION_DDOT = 0

